{"users": [
    {
        "fname": "Sara",
        "lname": "Ruback",
        "tel": "(874)350-9288",
        "address": "8828 Mi Dr",
        "city": "Minneapolis",
        "state": "MO",
        "zip": 77070
    },
    {
        "fname": "Keesha",
        "lname": "Chang",
        "tel": "(704)007-0714",
        "address": "4737 Ac Ct",
        "city": "Madison",
        "state": "DE",
        "zip": 91582
    },
    {
        "fname": "Guillermina",
        "lname": "Salguero",
        "tel": "(780)955-9324",
        "address": "9642 Amet Ct",
        "city": "Rochester",
        "state": "NV",
        "zip": 29375
    },
    {
        "fname": "Sonya",
        "lname": "Shroff",
        "tel": "(956)546-9259",
        "address": "8374 Sed Ave",
        "city": "Monmouth Beach",
        "state": "MO",
        "zip": 82670
    },
    {
        "fname": "Janice",
        "lname": "Flamme",
        "tel": "(630)172-1628",
        "address": "236 Pulvinar Ave",
        "city": "Schaumburg",
        "state": "NH",
        "zip": 26617
    },
    {
        "fname": "Terese",
        "lname": "Barrow",
        "tel": "(943)373-3112",
        "address": "7106 Suspendisse Rd",
        "city": "Green Bay",
        "state": "ND",
        "zip": 70419
    },
    {
        "fname": "Trisha",
        "lname": "Butterfield",
        "tel": "(760)984-5245",
        "address": "3741 Convallis Ave",
        "city": "Brooklyn",
        "state": "SD",
        "zip": 67063
    },
    {
        "fname": "Jonathan",
        "lname": "Vlasses",
        "tel": "(894)647-1723",
        "address": "7082 Elit Rd",
        "city": "State College",
        "state": "NE",
        "zip": 56471
    },
    {
        "fname": "Aesha",
        "lname": "Masson",
        "tel": "(728)301-5767",
        "address": "6183 Tortor Dr",
        "city": "Tallapoosa",
        "state": "MO",
        "zip": 91984
    },
    {
        "fname": "Alonzo",
        "lname": "Mathis",
        "tel": "(996)140-8794",
        "address": "168 Scelerisque Ct",
        "city": "Lakewood",
        "state": "DE",
        "zip": 70499
    }
]}
